NUSAT-50 (NANCY ROMAN)  
1 60493U 24149AB  26068.80227738  .00012094  00000+0  42252-3 0  9994
2 60493  97.3817 150.7693 0002523 238.0469 122.0527 15.29713355 86930
STARLINK-35139          
1 66380U 25257A   26068.68004662  .00026103  00000+0  89027-3 0  9998
2 66380  53.1592 216.9569 0001082  70.9762 289.1356 15.30203031 19675
